[{"OBJECT_NAME":"GEESAT-1 09","OBJECT_ID":"2022-058J","EPOCH":"2026-03-09T22:14:58.178400","MEAN_MOTION":14.996745,"ECCENTRICITY":0.0007116,"INCLINATION":49.9974,"RA_OF_ASC_NODE":293.7726,"ARG_OF_PERICENTER":137.6611,"MEAN_ANOMALY":222.4884,"EPHEMERIS_TYPE":0,"CLASSIFICATION_TYPE":"U","NORAD_CAT_ID":52793,"ELEMENT_SET_NO":999,"REV_AT_EPOCH":20534,"BSTAR":0.00045554765,"MEAN_MOTION_DOT":5.429e-5,"MEAN_MOTION_DDOT":0},{"OBJECT_NAME":"STARLINK-34059","OBJECT_ID":"2025-094J","EPOCH":"2026-03-09T20:25:23.722464","MEAN_MOTION":14.98344933,"ECCENTRICITY":0.00034434,"INCLINATION":70.0018,"RA_OF_ASC_NODE":234.1973,"ARG_OF_PERICENTER":272.8074,"MEAN_ANOMALY":87.2691,"EPHEMERIS_TYPE":0,"CLASSIFICATION_TYPE":"U","NORAD_CAT_ID":63872,"ELEMENT_SET_NO":999,"REV_AT_EPOCH":4722,"BSTAR":0.0004846981,"MEAN_MOTION_DOT":5.697e-5,"MEAN_MOTION_DDOT":0}]
